{
  "norad_id": 57141,
  "name": "STARLINK-5357",
  "history": [
    {
      "epoch": "2026-03-28T20:48:30.381984Z",
      "apogee_km": 486.4187861752971,
      "perigee_km": 484.63135129935563,
      "latitude_deg": 1.9622034748284822e-05,
      "longitude_deg": 16.001721169925748,
      "height_km": 485.21937999891765,
      "semi_major_axis_km": 6863.662068737326,
      "eccentricity": 0.00013021,
      "inclination_deg": 43.0009,
      "raan_deg": 154.4096,
      "arg_perigee_deg": 275.2963,
      "mean_anomaly_deg": 84.774,
      "mean_motion_rev_day": 15.26753494
    }
  ]
}